full_Name,street,city,state,zip_code
Fonzie Springthorp,70 Esker Point,Charleston,South Carolina,29403
Becky Tremathick,86345 Little Fleur Junction,Dallas,Texas,75236
Pierson Josefson,3330 International Place,San Francisco,California,94105
Graig Bruno,407 Wayridge Lane,Cincinnati,Ohio,45213
Veronica Sutterfield,82 Buena Vista Street,Albuquerque,New Mexico,87180
Cordell Fernez,66210 Sheridan Lane,Anaheim,California,92812
Hardy Hymus,6641 Ridgeway Way,Phoenix,Arizona,85045
Karen Labrone,8318 Ohio Point,Bronx,New York,10459
Ignacius Chiene,200 Ronald Regan Alley,Henderson,Nevada,89012
Victoir Serck,0337 Truax Avenue,Philadelphia,Pennsylvania,19141
Elnar Allsop,8775 Becker Alley,White Plains,New York,10633
Ina Gutch,89070 Becker Park,Santa Cruz,California,95064
Jobi Skin,71 Butterfield Circle,Mobile,Alabama,36622
Daryl Davidove,20855 Hazelcrest Parkway,Orlando,Florida,32854
Shurlocke Stoffels,58 Paget Lane,Atlanta,Georgia,30392
Gayel Behnen,830 Cascade Alley,Memphis,Tennessee,38109
Vail Schleswig-Holstein,659 Clarendon Hill,Tuscaloosa,Alabama,35405
Winne Buntine,983 David Drive,San Francisco,California,94137
Lari Latan,218 Lakewood Circle,Columbia,Missouri,65218
Noami Haverson,84290 Chinook Crossing,Kalamazoo,Michigan,49006
Lyle Blakelock,38 Milwaukee Center,Tucson,Arizona,85720
Orv Brenstuhl,762 North Way,North Port,Florida,34290
Tallulah Dodson,06 Acker Park,Memphis,Tennessee,38126
Barbara Branscomb,51522 Arkansas Crossing,Erie,Pennsylvania,16534
Dewain Craghead,3744 Schiller Street,Memphis,Tennessee,38188
Juana Shotton,65317 Monica Road,Lansing,Michigan,48956
Miles Faudrie,0 Novick Point,Erie,Pennsylvania,16565
Willyt Sherburn,7 Golf Lane,Honolulu,Hawaii,96845
Rodina Diego,3734 Manitowish Junction,Jeffersonville,Indiana,47134
Inna Wogden,24943 Superior Trail,Topeka,Kansas,66606
Ella Chipping,6 Caliangt Pass,Fort Wayne,Indiana,46852
Heidi Puve,6220 Ruskin Alley,Minneapolis,Minnesota,55470
Sophey Siveter,8 Weeping Birch Street,Sioux Falls,South Dakota,57193
Mavis Elman,5106 Granby Plaza,Fresno,California,93740
Emogene Van Der Walt,71622 Starling Way,Conroe,Texas,77305
Venita Holywell,67 5th Circle,Gaithersburg,Maryland,20883
Adore Asple,557 Fisk Way,Topeka,Kansas,66611
Keenan Averall,75 Summerview Parkway,Alexandria,Virginia,22309
Hunter de Quincey,9 Bartillon Circle,Dallas,Texas,75216
Archibold Peevor,8 Blackbird Court,Columbus,Georgia,31914
Lorna Chadwen,66 Redwing Lane,Washington,District of Columbia,20238
Holt Ameer-Beg,1 Texas Trail,Kansas City,Kansas,66112
Joane Whetton,3 Maple Alley,Pasadena,California,91125
Constantina Agglio,0418 Hauk Hill,El Paso,Texas,88535
Munroe Kennion,8 Northridge Point,El Paso,Texas,79984
Merwin Zanelli,7 Schlimgen Junction,Nashville,Tennessee,37235
Ilene Claybourne,058 Mariners Cove Court,Richmond,Virginia,23277
Jobina Reams,38 Sunnyside Street,Cedar Rapids,Iowa,52410
Frederica Monson,57 Sutherland Crossing,Southfield,Michigan,48076
Harriet Adamik,2154 Kennedy Point,Lansing,Michigan,48930
Dominik MacFadin,554 Laurel Center,Columbia,South Carolina,29215
Georgeta Morriss,24 Brickson Park Crossing,Alexandria,Virginia,22313
Guthrie Haysey,5 Longview Junction,Birmingham,Alabama,35290
Chris Jewis,02 Bashford Center,Salt Lake City,Utah,84105
Mitch Shurrock,86929 Hovde Point,Fort Worth,Texas,76129
Valentine Fawley,9124 Eagan Parkway,West Palm Beach,Florida,33416
Aldrich Eckh,3929 Prairie Rose Hill,Youngstown,Ohio,44511
Becka Chaudron,47620 Elka Crossing,Fort Lauderdale,Florida,33345
Iseabal Tilsley,13 Elmside Drive,Raleigh,North Carolina,27635
Templeton Kenyon,04 Briar Crest Crossing,Anchorage,Alaska,99599
Britta Renad,0136 Fallview Parkway,San Antonio,Texas,78291
Floyd Novello,29 Park Meadow Way,Columbus,Ohio,43226
Clive Sharple,34432 Sunbrook Place,Montgomery,Alabama,36119
Michele Sandlin,62 Artisan Place,Wichita,Kansas,67260
Aldo Bellay,22 Southridge Alley,Toledo,Ohio,43615
Darcee Kline,37662 Thackeray Hill,Frankfort,Kentucky,40618
Berkley Moulds,3 Farwell Court,Shawnee Mission,Kansas,66225
Edna Jardine,075 Oakridge Alley,Houston,Texas,77223
Stevana Udell,966 Service Center,San Francisco,California,94154
Fawn Stubbington,5892 Mallard Avenue,Houston,Texas,77055
Liliane Outright,831 Oneill Pass,Fort Worth,Texas,76192
Locke Mouat,77563 Heath Avenue,Roanoke,Virginia,24040
Catlaina Cancellieri,90798 Charing Cross Trail,Miami,Florida,33190
Guinna Fullun,78653 Loftsgordon Pass,Mesa,Arizona,85210
Robb Petrasso,97 Debra Parkway,Memphis,Tennessee,38114
Dolly Coole,7 Parkside Terrace,Reno,Nevada,89595
Craggie Godleman,04 Westport Crossing,Dallas,Texas,75387
Codie Hengoed,956 Loftsgordon Hill,Saint Louis,Missouri,63150
Crawford Dorey,04 Bluejay Avenue,Omaha,Nebraska,68197
Dorian Matthew,601 Esch Point,Hamilton,Ohio,45020
Lynde Quail,0773 Mockingbird Parkway,Greenville,South Carolina,29605
Farlay Cutteridge,53 Golden Leaf Plaza,Washington,District of Columbia,20029
Cobb Sigfrid,914 Debs Drive,Richmond,Virginia,23208
Gabriele Towers,222 Golf Circle,Littleton,Colorado,80127
Janina Village,3546 Vahlen Place,Saint Paul,Minnesota,55127
Niven Fretter,2447 Tennyson Circle,Bismarck,North Dakota,58505
Glenna Jeary,83311 Huxley Plaza,North Hollywood,California,91616
Maurine Mannion,3 Farragut Crossing,Charleston,West Virginia,25313
Terrence Dinkin,76 Cambridge Road,Salt Lake City,Utah,84110
Rafaello Favell,95604 Golf Way,Harrisburg,Pennsylvania,17126
Jeana Virgo,9332 Dayton Road,Biloxi,Mississippi,39534
Delila Danjoie,78 Kings Street,Newport News,Virginia,23605
Melly Lead,07558 Manley Point,Brockton,Massachusetts,02405
Karoline Meugens,881 Lawn Crossing,Kissimmee,Florida,34745
Stepha Ghelarducci,7494 Sunbrook Lane,Oakland,California,94605
Dicky Toffel,216 Menomonie Alley,Roanoke,Virginia,24048
Gwen Minter,175 Merry Point,Dallas,Texas,75342
Fabian Sarton,98334 Fuller Hill,New York City,New York,10034
Stephie Henstone,93772 Bashford Center,Littleton,Colorado,80126
Orlando Klimp,994 Caliangt Parkway,Topeka,Kansas,66642
Julia McCormick,4268 Carey Pass,San Diego,California,92137
Paulina Gabitis,70279 Chive Crossing,Bethlehem,Pennsylvania,18018
Gertie Dunkinson,999 Lake View Trail,Roanoke,Virginia,24034
Maxie Groveham,35381 Burrows Road,New York City,New York,10014
Yancy Ville,842 Park Meadow Circle,El Paso,Texas,79905
Carly Suthren,860 Toban Plaza,Detroit,Michigan,48232
Sergei Justham,85675 Namekagon Court,Kansas City,Missouri,64125
Nicolis Dymick,33 Anniversary Drive,El Paso,Texas,79968
Ardisj Taw,1167 Melby Drive,Savannah,Georgia,31405
Alyse Okell,4 Sutteridge Crossing,Temple,Texas,76505
Clementine Soldi,156 Londonderry Place,Houston,Texas,77293
Agatha Rimour,6785 Northport Trail,Cincinnati,Ohio,45999
Trenna Sam,5486 Myrtle Pass,Philadelphia,Pennsylvania,19191
Linet MacQueen,7 Shelley Crossing,Washington,District of Columbia,20425
Fredrick Coverly,6 Texas Park,San Bernardino,California,92424
Mahala Sor,1952 Duke Place,Boynton Beach,Florida,33436
Danit Aizikov,9 Utah Pass,Bronx,New York,10469
Arny Wilce,6361 Nevada Park,Charlotte,North Carolina,28289
Sybila Weatherhogg,9792 Heath Crossing,Erie,Pennsylvania,16550
Elmer Farquar,20447 Calypso Place,San Antonio,Texas,78230
Lethia Dunphy,444 Schurz Parkway,Denver,Colorado,80223
Pip Harrie,99809 Riverside Avenue,Trenton,New Jersey,08608
Duke Milvarnie,3 Sauthoff Court,Flushing,New York,11388
Sibbie Clendinning,7477 Columbus Alley,Montpelier,Vermont,05609
Laurens Ebenezer,6632 Armistice Center,San Jose,California,95138
Carita Poncet,15 Mitchell Junction,Winston Salem,North Carolina,27150
Bernardina Craig,4158 Judy Terrace,Joliet,Illinois,60435
Carlin Dosdell,29298 Redwing Plaza,Cincinnati,Ohio,45271
Bealle Swyer,45 Oneill Plaza,Saint Louis,Missouri,63196
Frederich Switzer,96 Oxford Road,Jackson,Mississippi,39296
Pren Roycraft,8 Center Trail,Albuquerque,New Mexico,87195
Eleanora Danilov,7 Arrowood Avenue,Indianapolis,Indiana,46239
Rosalynd Sandcroft,31 Barby Point,Fort Lauderdale,Florida,33355
Nana Munro,04 Randy Plaza,Charlotte,North Carolina,28230
Giselle Morgans,2 Grim Junction,Raleigh,North Carolina,27615
Cody Finicj,0316 Crescent Oaks Place,Washington,District of Columbia,20062
Jesse Lohde,0 Gale Alley,Cleveland,Ohio,44118
Casar Arnault,84036 Jackson Pass,San Francisco,California,94126
Bradan Faltin,77 Hoffman Center,Charleston,West Virginia,25326
Tiphanie Golling,24742 Artisan Circle,Cincinnati,Ohio,45254
Barclay Admans,8544 Ohio Street,Wilmington,Delaware,19805
Laureen Colls,61 Green Point,Charlotte,North Carolina,28289
Deedee Glentworth,017 Vahlen Alley,Inglewood,California,90310
Sarita Fenney,30 Bowman Lane,Henderson,Nevada,89074
Kiah Kilbee,7 Jackson Junction,Mc Keesport,Pennsylvania,15134
Dean Gyde,7 Nelson Lane,Hartford,Connecticut,06120
Arne Sunnucks,691 Emmet Point,Little Rock,Arkansas,72215
Fidole Sigart,86683 Manitowish Drive,Fullerton,California,92640
Walt Heditch,4 Ludington Way,Young America,Minnesota,55557
Shane Sexstone,74583 Cottonwood Park,Houston,Texas,77050
Stephine Ramard,8 Ryan Center,Glendale,California,91210
Kaila Carlisle,04 Becker Road,Washington,District of Columbia,20260
Kristyn Ivankov,00150 Waywood Court,Chesapeake,Virginia,23324
Idette Kerne,345 Birchwood Street,Tucson,Arizona,85737
April Wigzell,44839 Northridge Plaza,Washington,District of Columbia,20231
Agneta Robbey,62424 Gale Street,Gary,Indiana,46406
Torr Hallen,8170 Grim Drive,Kansas City,Missouri,64136
Wayland Tonner,06326 Jackson Parkway,Salem,Oregon,97306
Querida Early,391 Commercial Plaza,Dayton,Ohio,45432
Carlyle Dusting,6 Merrick Circle,Colorado Springs,Colorado,80940
Brucie Jakoubec,93 Walton Circle,Austin,Texas,78769
Jory Ragg,2 Mesta Lane,Dallas,Texas,75392
Briney Gullam,591 Miller Trail,Topeka,Kansas,66611
Jeannette Dovidian,0 2nd Street,New Orleans,Louisiana,70187
Ann-marie Tittershill,63 Buena Vista Trail,Denver,Colorado,80204
Allin Saylor,74988 Rowland Terrace,Pueblo,Colorado,81015
Bella Records,37488 Montana Terrace,Naples,Florida,34114
Ardine Garwill,7 Katie Hill,Pittsburgh,Pennsylvania,15235
Taryn Rainbow,0178 Transport Avenue,Green Bay,Wisconsin,54305
Bianka Skupinski,2 Corscot Circle,Dallas,Texas,75310
Eugine Creavin,9 School Trail,Chattanooga,Tennessee,37450
Joe Emps,7547 Lien Avenue,Des Moines,Iowa,50305
Remus Basford,21187 Upham Way,Denver,Colorado,80228
Damian Duchenne,9463 Sheridan Park,Washington,District of Columbia,56944
Tiebout St Ange,19303 Clove Drive,Little Rock,Arkansas,72209
Dorelia Matussevich,74 Vernon Trail,Oklahoma City,Oklahoma,73179
Claire Dragonette,8260 Oxford Junction,Reno,Nevada,89519
Alma Knagges,34004 Hanover Lane,Knoxville,Tennessee,37995
Keeley Simanek,10349 2nd Point,San Francisco,California,94164
Judon Jeanenet,98 Iowa Junction,Boulder,Colorado,80328
Ysabel Bartlett,706 Hintze Parkway,Baltimore,Maryland,21239
Aliza Goodere,5577 Sullivan Point,New Orleans,Louisiana,70124
Tildi Cossey,8675 Arizona Pass,Delray Beach,Florida,33448
Twila Iban,6 Mandrake Center,Maple Plain,Minnesota,55579
Gretal MacCardle,0471 Moulton Drive,Akron,Ohio,44321
Skylar Greser,260 Superior Park,Schenectady,New York,12305
Siward Asquith,1 Hazelcrest Hill,Salt Lake City,Utah,84125
Gavin O'Mailey,40918 Blaine Circle,Springfield,Massachusetts,01129
Henrie Flahy,90066 Corry Park,Spartanburg,South Carolina,29305
Berti Haslum,25 Reinke Park,Lincoln,Nebraska,68510
Cherin Priver,79 Cardinal Plaza,Miami,Florida,33261
Thorvald Endrighi,2 Anthes Drive,Wilmington,Delaware,19886
Wilden Jacqueminot,98949 School Hill,Portland,Oregon,97221
Bernita Axtell,80 Del Sol Parkway,Cincinnati,Ohio,45213
Constantia Maxworthy,821 Packers Point,Cincinnati,Ohio,45249
Josee Dossetter,76688 Anniversary Alley,San Francisco,California,94137
Carolus Ellett,2895 Warbler Park,Minneapolis,Minnesota,55487
Jean Foggo,84 Clove Court,Charlotte,North Carolina,28230
Eldin Figurski,0138 Elgar Avenue,Albuquerque,New Mexico,87105
Vidovik McGeouch,2030 Transport Court,Washington,District of Columbia,20503
Shelden Prestidge,04 Amoth Drive,Columbus,Ohio,43210
Petronella Maton,19889 Lunder Crossing,Pompano Beach,Florida,33075
Van Storrah,9330 Thierer Junction,Grand Rapids,Michigan,49505
Guglielmo Touson,70 Eliot Crossing,Austin,Texas,78715
Janey Marchi,58 Duke Drive,San Luis Obispo,California,93407
Trixie Arnaez,9 Atwood Drive,Charleston,West Virginia,25389
Andrus Eastcourt,225 Sherman Terrace,New Orleans,Louisiana,70160
Bea Dreinan,8 Bunting Terrace,Austin,Texas,78715
Eberto Streatley,4 Sunbrook Place,Dayton,Ohio,45426
Loni Whapham,42 Briar Crest Drive,Little Rock,Arkansas,72231
Anthe Hilliam,76 Schurz Terrace,Knoxville,Tennessee,37939
Napoleon Hannigane,6141 Susan Park,Bryan,Texas,77806
Berthe Dabs,46342 Kipling Terrace,Young America,Minnesota,55557
Briney Halbert,38464 Reinke Avenue,Texarkana,Texas,75507
Dannie Howieson,6026 Dayton Hill,Orlando,Florida,32854
Poul Bordes,6 Scott Point,Atlanta,Georgia,30358
Gillian Wigsell,92 Maple Road,Whittier,California,90605
Sheffy Abrehart,4686 South Point,El Paso,Texas,79999
Alice Catterall,66 Hooker Avenue,Evansville,Indiana,47719
Hale Monkman,42 Farwell Way,Staten Island,New York,10305
Sayre Titterington,2498 American Trail,Washington,District of Columbia,20299
Marline Lindfors,2 Fuller Court,Washington,District of Columbia,20073
Scarlett Suscens,987 Farwell Lane,Miami,Florida,33164
Brynn Shaudfurth,9512 Union Trail,Topeka,Kansas,66629
Warde Orthmann,2 Claremont Center,Bellevue,Washington,98008
Shirline Millbank,59144 Emmet Road,Seattle,Washington,98121
Indira Toffanelli,006 Anzinger Street,Evansville,Indiana,47737
Andromache Caldicot,1 Kropf Way,Saint Paul,Minnesota,55127
Pansy Lamy,24645 Haas Way,Birmingham,Alabama,35244
Artus Bointon,648 Carioca Terrace,Meridian,Mississippi,39305
Lauree Jellicorse,24 High Crossing Place,Madison,Wisconsin,53726
Garnet Rozec,16850 South Drive,Memphis,Tennessee,38109
Chlo Shackesby,0208 Cardinal Drive,Cincinnati,Ohio,45233
Lorry Abele,0968 6th Crossing,Dallas,Texas,75231
Tiffanie Kohler,320 Redwing Pass,Pittsburgh,Pennsylvania,15205
Will Mandifield,4894 Thierer Alley,Mesa,Arizona,85215
Todd Windross,8 Reinke Way,Utica,New York,13505
Marian Matysiak,9 Hayes Terrace,Springfield,Massachusetts,01105
Sigvard Tillot,55553 Mccormick Crossing,New Haven,Connecticut,06520
Cullin Ledwith,039 Basil Place,Salt Lake City,Utah,84199
Dmitri McKellen,9 Iowa Center,Indianapolis,Indiana,46207
Angelo Irvine,06 Fair Oaks Road,Sioux Falls,South Dakota,57188
Willamina Thebeaud,50 Sugar Hill,Clearwater,Florida,34629
Haslett Pheasey,61 Meadow Vale Parkway,Shreveport,Louisiana,71161
Belia Sparrow,79 Mandrake Center,Jacksonville,Florida,32230
Markus Maty,0 Kings Park,San Francisco,California,94164
Caspar Gerin,738 Ridge Oak Crossing,Waterbury,Connecticut,06726
Korney Sellick,9916 Di Loreto Point,Savannah,Georgia,31410
Lotta Caveau,0535 Ridgeview Road,Dallas,Texas,75221
Ortensia Quiddinton,69346 Brentwood Way,Roanoke,Virginia,24020
Peggy Gabrieli,452 Dahle Pass,Irving,Texas,75062
Honoria Loveland,29783 Eagan Avenue,Atlanta,Georgia,30328
Nevil Balbeck,844 Sherman Junction,Young America,Minnesota,55557
Reginald Pursglove,80942 Moose Parkway,Des Moines,Iowa,50335
Lita Geall,41 Hazelcrest Point,Baton Rouge,Louisiana,70820
Rici Bourke,339 8th Hill,San Diego,California,92170
Ariela Benesevich,64251 Pond Terrace,Stockton,California,95210
Burl Wyldes,0 Badeau Circle,Athens,Georgia,30610
Stephine Rebillard,14 Hoepker Street,Stamford,Connecticut,06905
Cinnamon Charkham,9736 Graedel Pass,Erie,Pennsylvania,16510
Rutger Fryman,2 Washington Road,Houston,Texas,77299
Karyn Hartle,705 Commercial Drive,Kansas City,Missouri,64149
Barnaby Cunniffe,26 Prentice Pass,Colorado Springs,Colorado,80940
Sigfried Minelli,6 Mallory Avenue,Los Angeles,California,90087
Manya Farnie,11 Hanover Way,Sioux Falls,South Dakota,57110
Raymond Ruppele,583 3rd Crossing,Pittsburgh,Pennsylvania,15225
Cordelie Ketteridge,009 Debra Road,Saint Louis,Missouri,63110
Caryl Hinkens,4073 Anzinger Plaza,Riverside,California,92513
Bamby Milbourn,14 Loomis Circle,Buffalo,New York,14210
Guido Coggill,1 Sommers Center,Philadelphia,Pennsylvania,19131
Ambrose Sicily,30283 Commercial Terrace,Richmond,Virginia,23225
Franky Shimmings,13 Springs Hill,New York City,New York,10090
Chelsey Vollam,0 Eastlawn Drive,Orlando,Florida,32868
Arlina Rehme,6337 Grim Trail,Chicago,Illinois,60619
Nathanil Ferie,025 Prairie Rose Street,Sioux City,Iowa,51110
Ellen Jellman,9029 Bay Road,Fort Worth,Texas,76162
Lemar Dunk,4811 Artisan Place,Charleston,South Carolina,29411
Tibold Brownsell,191 Shopko Avenue,Van Nuys,California,91499
Dania Auchinleck,65541 Moulton Parkway,Wilmington,North Carolina,28410
Griselda Westby,8 Norway Maple Center,El Paso,Texas,79945
Arnoldo Deinert,215 Morrow Plaza,Norman,Oklahoma,73071
Car Bleackly,47 Orin Terrace,Syracuse,New York,13210
Cornell Knighton,5564 Di Loreto Terrace,Fort Lauderdale,Florida,33315
Hyacinthe Christal,9 Towne Lane,Las Vegas,Nevada,89130
Maynard Budnk,16 Huxley Crossing,Omaha,Nebraska,68164
Tomkin Chasemore,6640 Graedel Junction,Modesto,California,95397
Tiebout Wayon,1 Mccormick Junction,Los Angeles,California,90101
Cece Scarman,3024 Glacier Hill Center,Detroit,Michigan,48275
Kassandra Delph,31501 Daystar Hill,San Jose,California,95133
Julissa Golsby,9 Chive Terrace,Berkeley,California,94705
Kitti Stormont,163 Norway Maple Point,Austin,Texas,78759
Drona Baffin,77306 Lukken Pass,Clearwater,Florida,33758
Carey Danilyak,1 Stone Corner Center,San Diego,California,92170
Tansy Antoszczyk,15270 Basil Trail,Florence,South Carolina,29505
Mayne Fridaye,4 Clemons Circle,Waterloo,Iowa,50706
Ervin Scudamore,73 5th Avenue,Pittsburgh,Pennsylvania,15205
Dahlia Sherel,1491 Dakota Drive,Macon,Georgia,31205
Silvio Stapforth,90 Lunder Lane,Charleston,West Virginia,25331
Wesley Lopez,6 Larry Way,Colorado Springs,Colorado,80930
Betta Sawyers,315 Ryan Avenue,Berkeley,California,94705
Teddy Jessett,69 Grover Pass,Cleveland,Ohio,44197
Iver Atcherley,51153 Meadow Valley Terrace,Appleton,Wisconsin,54915
Lenette Stuke,9299 Doe Crossing Crossing,Arlington,Virginia,22225
Beckie Correa,7510 Novick Center,Minneapolis,Minnesota,55487
Jana Lardez,1 3rd Avenue,Columbus,Ohio,43210
Dacy Strooband,159 Thierer Drive,Washington,District of Columbia,20380
Katti Stolworthy,274 Del Sol Pass,Toledo,Ohio,43610
Eben Tallon,1 Grasskamp Avenue,Lafayette,Louisiana,70593
Basilius Guiden,74 Ridge Oak Center,Little Rock,Arkansas,72222
Glen Lie,850 Glacier Hill Hill,Milwaukee,Wisconsin,53263
Melita McNamee,87355 Kim Junction,Oklahoma City,Oklahoma,73135
Ulick Gonnelly,4016 Doe Crossing Terrace,Pittsburgh,Pennsylvania,15235
Cully Card,3 Declaration Avenue,San Diego,California,92115
Andres Stearnes,95093 Spenser Way,Pensacola,Florida,32526
Ashlen Cunniff,72134 Sommers Trail,Fort Worth,Texas,76115
Aurelea Figiovanni,52 Maryland Lane,Ridgely,Maryland,21684
Collie Milier,4478 Weeping Birch Hill,New York City,New York,10039
Minette Allbut,65250 Leroy Plaza,Greenville,South Carolina,29610
Rois Matteoli,518 Dayton Alley,El Paso,Texas,79984
Bob Kilty,66828 Farwell Trail,Redwood City,California,94064
Nedda Tutill,55 Weeping Birch Street,Huntington,West Virginia,25716
Morie Killiner,06 Sullivan Center,El Paso,Texas,88535
Jazmin Dawidsohn,315 Towne Crossing,Sioux Falls,South Dakota,57193
Ansell Lerer,1 Fremont Junction,Fort Wayne,Indiana,46805
Conney Blackshaw,5984 Holy Cross Place,Los Angeles,California,90045
Mar Adolf,97 Dryden Place,Waterloo,Iowa,50706
Ingmar Wallsworth,22 Pearson Crossing,San Diego,California,92105
Guglielma Megroff,63 Porter Parkway,Alexandria,Virginia,22301
Bennie Gherardi,1878 Kinsman Court,Austin,Texas,78749
Isabel Aggas,1371 Almo Pass,Charleston,West Virginia,25305
Maye Bateson,0 Prairie Rose Pass,Memphis,Tennessee,38109
Tod Witul,0229 Stuart Drive,Mount Vernon,New York,10557
Jocko Batterton,2 Bunting Pass,Norcross,Georgia,30092
Shantee Stillwell,8231 Jackson Drive,Sacramento,California,95865
Conrado Housen,01368 Birchwood Park,Oakland,California,94616
Cathrine Chavrin,553 Hagan Point,Plano,Texas,75074
Stanleigh Nowill,24009 Derek Place,Seattle,Washington,98195
Lura Snadden,73 Arrowood Alley,Flushing,New York,11388
Libby Buggs,7 Everett Pass,Monticello,Minnesota,55590
Felecia Masselin,57745 Gulseth Plaza,Annapolis,Maryland,21405
Kelsi Brattell,6202 Glendale Lane,Austin,Texas,78710
Arlie Carlsen,85783 Gulseth Avenue,Amarillo,Texas,79176
Lavinie Mawdsley,14 Toban Circle,Lexington,Kentucky,40581
Peyter Sleigh,34996 Elka Plaza,El Paso,Texas,88558
Essie Srutton,1 Brickson Park Avenue,El Paso,Texas,79999
Milli Drysdall,8408 Hooker Point,Baltimore,Maryland,21282
Milt Bathoe,73 West Circle,Louisville,Kentucky,40210
Danni Olliar,2325 Montana Point,Allentown,Pennsylvania,18105
Ingamar Poundsford,13817 Old Shore Junction,Tuscaloosa,Alabama,35487
Francis Seamons,65804 Bluestem Alley,Pittsburgh,Pennsylvania,15205
Garv Smithen,07811 Prairieview Parkway,Tallahassee,Florida,32309
Alfy Olensby,307 2nd Circle,Canton,Ohio,44710
Benn Domange,1021 Mosinee Park,Memphis,Tennessee,38181
Berenice Scrammage,1 Tomscot Place,Phoenix,Arizona,85083
Ian Themann,9 Gale Court,Pueblo,Colorado,81010
Basile Cocke,987 Anhalt Point,New Orleans,Louisiana,70116
Nola Swindlehurst,7 Grim Crossing,New Haven,Connecticut,06510
Shea Probetts,6909 Sutteridge Court,Oakland,California,94660
Gerda Greetham,0018 Burning Wood Trail,Reston,Virginia,20195
Lazarus Yeldham,624 Monument Place,Honolulu,Hawaii,96805
Erskine Galgey,79170 Summerview Center,Virginia Beach,Virginia,23459
Zonnya Entreis,4202 Eastlawn Drive,Brooklyn,New York,11247
Seline Chalfain,0323 Bashford Place,Arlington,Texas,76016
Yurik Rosenthal,2 Calypso Terrace,Tulsa,Oklahoma,74126
Kory Boule,2241 Monica Crossing,Pasadena,California,91131
Rosaline Killerby,55011 Debs Court,Saint Louis,Missouri,63110
Dawna Pichmann,49 Waxwing Avenue,Sacramento,California,94207
Mirabelle Purkiss,49 Pawling Trail,Valley Forge,Pennsylvania,19495
Karoline Matley,61645 Linden Pass,Seattle,Washington,98121
Gisela McMonnies,4255 Superior Way,Toledo,Ohio,43656
Clem Mindenhall,979 Redwing Lane,Evansville,Indiana,47737
Fenelia Curtayne,6 Dennis Road,Irvine,California,92710
Aliza Leggon,87605 Kipling Junction,Irvine,California,92717
Emmy Macewan,594 Waubesa Point,Richmond,Virginia,23272
Jethro Patterson,711 Quincy Hill,Cincinnati,Ohio,45218
Albie Gildersleaves,97801 Lyons Trail,Riverside,California,92505
Constanta Redgewell,101 Spohn Street,Wichita,Kansas,67210
Alyosha Hourahan,8 Bultman Trail,Topeka,Kansas,66642
Ricca Swiggs,52700 Darwin Crossing,Pueblo,Colorado,81005
Quincey Colls,2011 Ridgeview Plaza,Oklahoma City,Oklahoma,73104
Barbette Castagneto,84 Tomscot Avenue,Fort Worth,Texas,76134
Merlina Allridge,19147 Ronald Regan Alley,Evansville,Indiana,47719
Sloane Looks,5882 Holmberg Lane,Houston,Texas,77223
Truman Colloby,9 Schlimgen Road,Washington,District of Columbia,20005
Wrennie Cush,87695 Mcguire Trail,Lubbock,Texas,79410
Gabie Kimble,374 Linden Drive,Cambridge,Massachusetts,02142
Zena Narey,639 Bunker Hill Street,Delray Beach,Florida,33448
Isabelle Emanulsson,4515 Rockefeller Hill,Racine,Wisconsin,53405
Maggi Bogue,218 Eliot Road,Minneapolis,Minnesota,55402
Drake Palomba,9121 Kings Terrace,Harrisburg,Pennsylvania,17126
Philis Cutbush,50 Emmet Court,Danbury,Connecticut,06816
Willa Behn,21837 Ruskin Park,Fort Lauderdale,Florida,33330
Itch Haimes,443 Rutledge Junction,Jacksonville,Florida,32244
Tallou Duerden,79977 Grim Drive,Baltimore,Maryland,21282
Domenico Dyke,5976 Maple Drive,Boston,Massachusetts,02298
Howey Brokenshaw,2073 Atwood Park,Pensacola,Florida,32511
Magnum Whorton,8 Haas Terrace,Fresno,California,93709
Rab Hawksley,12187 Morrow Drive,Mansfield,Ohio,44905
Paige Tawse,980 Oak Valley Park,Philadelphia,Pennsylvania,19136
Christal Carney,28916 Cardinal Center,Eugene,Oregon,97405
Judith Esmead,83 Pleasure Plaza,Brea,California,92822
Sergent Heeron,2 Surrey Junction,Austin,Texas,78715
Avivah Pugh,618 Hudson Center,Aurora,Illinois,60505
Alika Sirl,53 Lakewood Lane,Fresno,California,93773
Caresa Blainey,15 Utah Crossing,Pittsburgh,Pennsylvania,15205
Lexine Fockes,3 Cottonwood Point,Fredericksburg,Virginia,22405
Marnia Pesik,12126 Schurz Place,Boise,Idaho,83727
Daisie Wytchard,82 Buena Vista Plaza,El Paso,Texas,79994
Lulita Erickson,7062 Kingsford Plaza,Tucson,Arizona,85732
Panchito Crose,6982 Anzinger Pass,San Antonio,Texas,78265
Dorothy Pass,93593 Anhalt Hill,Orlando,Florida,32819
Artemus Spracklin,67593 Hallows Terrace,Louisville,Kentucky,40287
Isadora Wilcot,2983 Cottonwood Parkway,Norman,Oklahoma,73071
Standford Murrow,75411 Butternut Court,Washington,District of Columbia,20557
Melloney Littrick,8893 Bluestem Hill,Oakland,California,94660
Aindrea Snelgar,961 Wayridge Way,Lubbock,Texas,79415
Odelinda Callard,80580 Lyons Place,San Rafael,California,94913
Christoforo Preedy,61 Esker Alley,Philadelphia,Pennsylvania,19160
Bard Drinkhall,34738 South Terrace,Atlanta,Georgia,30358
Grenville Filkin,56 Twin Pines Way,Bakersfield,California,93386
Rolfe Du Fray,6 Pond Trail,Bakersfield,California,93399
Deni McBay,6 Delladonna Parkway,Saint Petersburg,Florida,33705
Erastus Maudsley,80 Barby Road,Corona,California,92878
Lincoln Winckle,7 Mendota Center,Macon,Georgia,31205
Pip Fetterplace,2 Darwin Hill,Toledo,Ohio,43666
Marjie Esmead,8 Pankratz Parkway,Pittsburgh,Pennsylvania,15266
Wayne Warin,97 Canary Park,Fresno,California,93778
Tyrone Leuty,8812 Vahlen Alley,Abilene,Texas,79605
Deborah Pacey,67 Paget Street,Peoria,Illinois,61605
Bari Feighney,96 Longview Trail,Houston,Texas,77005
Reider Regitz,7 Bultman Trail,Tucson,Arizona,85754
Heywood Gilleon,43291 Mcbride Way,Toledo,Ohio,43615
Joel Dowe,45 Arrowood Court,London,Kentucky,40745
Shawn Deware,319 American Avenue,Augusta,Georgia,30919
Christy Musslewhite,82 Crowley Lane,North Las Vegas,Nevada,89087
Jamison Jekyll,95536 Donald Parkway,Toledo,Ohio,43635
Gunilla Betterton,99822 Oakridge Way,Bryan,Texas,77806
Horace Daverin,75 Jenna Park,San Diego,California,92170
Katrina Viggars,6 Farmco Trail,Arlington,Virginia,22244
Adoree Palphreyman,8335 Bunting Trail,Atlanta,Georgia,30380
Colin Hanlon,33909 Mallory Way,Indianapolis,Indiana,46278
Hoyt Revey,1992 Maple Circle,Tampa,Florida,33620
Trisha Edens,34905 Fairview Lane,Scottsdale,Arizona,85271
Hilary MacCrann,5 Victoria Drive,Wilmington,North Carolina,28410
Ronald Graffham,7 Schiller Parkway,Los Angeles,California,90040
Roby Denisevich,678 Ridgeview Parkway,Seattle,Washington,98104
Nicko Burland,4315 Huxley Road,Charlotte,North Carolina,28220
Innis Lynagh,8368 Continental Alley,Houston,Texas,77055
Mellisa Haywood,12 Del Sol Alley,Toledo,Ohio,43699
Kalvin Woodthorpe,68380 Carpenter Way,Valley Forge,Pennsylvania,19495
Consalve Duferie,93685 Helena Hill,Fort Lauderdale,Florida,33355
Monroe O' Hanvey,2730 Monterey Terrace,Detroit,Michigan,48224
Luca Duckhouse,798 Hoffman Way,Cleveland,Ohio,44191
Phip McKellar,5855 Truax Junction,Memphis,Tennessee,38161
Elmore Draisey,67726 Carey Place,Springfield,Missouri,65810
Bianca Matresse,89 Park Meadow Trail,Houston,Texas,77090
Benjie Cowtherd,44 Scofield Plaza,Washington,District of Columbia,20268
Nikolas Bowers,761 Moose Park,Pensacola,Florida,32520
Elmer Holliar,36688 Hallows Plaza,Washington,District of Columbia,20535
Marge Kelway,58386 Randy Junction,Pittsburgh,Pennsylvania,15266
Gilda Jaimez,07 Dahle Park,Honolulu,Hawaii,96850
Katey Mazin,22897 Acker Street,Spring,Texas,77388
Celisse Vamplus,98 Magdeline Street,Decatur,Georgia,30033
Dov Grass,3 Maple Wood Crossing,Omaha,Nebraska,68110
Rollin Deveril,2 Farwell Avenue,Colorado Springs,Colorado,80910
Broddie Livsey,343 Pepper Wood Terrace,Chicago,Illinois,60630
Milt Trenoweth,8339 Del Sol Point,Wilmington,Delaware,19897
Stacee Getley,1807 Elgar Terrace,Fort Lauderdale,Florida,33320
Alair Toothill,764 Talisman Pass,Omaha,Nebraska,68197
Tallie Climson,3540 Evergreen Plaza,San Diego,California,92191
Bing Stuchberry,607 Lake View Park,Waterbury,Connecticut,06726
Lucita Heustace,690 Upham Lane,San Jose,California,95108
Babbette Ovenell,88584 Quincy Alley,Saint Joseph,Missouri,64504
Olwen Badland,0 Village Green Road,Philadelphia,Pennsylvania,19172
Gerhard Redferne,87 American Ash Street,Indianapolis,Indiana,46254
Marcelle Mounsey,54 Lakewood Road,El Paso,Texas,79940
Tina Kirkebye,690 Schiller Parkway,Dallas,Texas,75221
Lavinia Carsey,9 Fairfield Road,Bethesda,Maryland,20892
Annelise Mioni,937 Spenser Terrace,Lake Charles,Louisiana,70616
Rochell Huband,85 Lillian Way,San Antonio,Texas,78210
Phedra Ausiello,800 Swallow Lane,Phoenix,Arizona,85067
Fitz Tivers,100 Moland Center,Northridge,California,91328
Dave Filchagin,025 Lotheville Crossing,Bronx,New York,10454
Brien Whybrow,84 Sullivan Street,Tampa,Florida,33686
Maryrose Hardey,52220 Schurz Road,Topeka,Kansas,66622
Olympie Pavlata,22475 Fairview Lane,Galveston,Texas,77554
Wyn Wrigglesworth,3 Sundown Pass,Baltimore,Maryland,21290
Mozelle Ryott,288 Rockefeller Plaza,Cincinnati,Ohio,45228
Lorelle Punyer,19879 Forest Place,Paterson,New Jersey,07505
Innis Dashkovich,877 American Ash Drive,Detroit,Michigan,48232
Harbert Pendrill,180 Mosinee Way,Iowa City,Iowa,52245
Rolf Mully,829 Montana Circle,Lexington,Kentucky,40524
Susana Mourant,5 Farwell Junction,Washington,District of Columbia,20310
Brendan Piotrkowski,66956 Morningstar Drive,Sacramento,California,95852
Gwynne Lunney,15 Southridge Way,San Diego,California,92105
Ward McFaell,49 Melvin Center,Minneapolis,Minnesota,55407
Ardisj Fliege,65434 School Drive,Brockton,Massachusetts,02305
Palm Orwin,1822 South Parkway,Jamaica,New York,11407
Dal Curnow,723 Boyd Pass,Fort Worth,Texas,76192
Corinne Heyns,80 Trailsway Court,Portland,Oregon,97296
Mikkel Studholme,3222 Dawn Crossing,Nashville,Tennessee,37245
Natasha Kitchenside,4 3rd Terrace,Tulsa,Oklahoma,74193
Suzann Godar,068 Gina Point,Roanoke,Virginia,24034
Daren Duckering,6228 Daystar Hill,San Diego,California,92132
Emmit Gurg,04600 Kim Place,Honolulu,Hawaii,96840
Ashleigh Saur,5 Algoma Crossing,Olympia,Washington,98516
Desdemona Dendle,7 Fordem Drive,Winston Salem,North Carolina,27150
Dael Bastian,647 New Castle Parkway,Buffalo,New York,14263
Duke Trollope,92300 Gale Circle,San Diego,California,92153
Ric Smorthwaite,71 Melrose Trail,Tucson,Arizona,85705
Stephine Rowland,949 Lunder Lane,Macon,Georgia,31296
Rodolphe Imlin,49988 Dottie Center,Delray Beach,Florida,33448
Boris Bollum,340 Logan Court,Miami,Florida,33111
Adele MacCrann,54346 Hoffman Drive,New York City,New York,10184
Ki Greste,31 Forest Dale Trail,Dulles,Virginia,20189
Noble Nolton,0 Jenna Street,Kansas City,Missouri,64114
Nicole Sails,8 Ramsey Alley,Long Beach,California,90831
Vivien Lintin,60677 Ruskin Crossing,Chicago,Illinois,60652
Jarib Glasbey,67211 Knutson Road,Columbus,Georgia,31914
Norbert Biggans,908 Talisman Terrace,Independence,Missouri,64054
Mandie Dunsmore,8531 Pawling Terrace,Alexandria,Virginia,22301
Row Goldster,06280 Hooker Circle,Dallas,Texas,75205
Donn Samms,53 Waywood Park,Orlando,Florida,32819
Daniela Quittonden,9075 Steensland Avenue,Birmingham,Alabama,35290
Lilyan Beausang,52 Continental Junction,Lynn,Massachusetts,01905
Linc Hedylstone,62 Russell Junction,Yakima,Washington,98907
Milo Tockell,32 Morrow Alley,Virginia Beach,Virginia,23471
Inna Elijahu,80 Monica Parkway,Anchorage,Alaska,99599
Ranna Gatenby,83 Cordelia Point,Riverside,California,92519
Alick Alenichev,93383 Prentice Road,Fort Worth,Texas,76110
Milty Balle,7988 Dapin Junction,Wilmington,Delaware,19886
Norah Dominighi,4807 Esker Junction,Sioux Falls,South Dakota,57110
Cesar Rigts,24 Grover Avenue,Boston,Massachusetts,02298
Zedekiah Buterton,2706 Hermina Road,Newport Beach,California,92662
Claudette Janowski,83082 Manley Road,Baton Rouge,Louisiana,70805
Shepperd Peat,05077 Northfield Parkway,Bethesda,Maryland,20816
Emmanuel Culpen,25 Moulton Court,Miami,Florida,33147
Bibi Ruse,9268 Waywood Lane,Fort Myers,Florida,33906
Penelope Kilmurray,36205 4th Park,Washington,District of Columbia,20599
Queenie Lilleman,0 Logan Court,Houston,Texas,77276
Harold Detoc,5419 Utah Circle,Montgomery,Alabama,36125
Vania Duxbarry,6781 Esch Court,Kalamazoo,Michigan,49048
Theadora Shilton,7 Dryden Pass,Fort Lauderdale,Florida,33305
Nada d'Escoffier,947 Westridge Pass,Manassas,Virginia,22111
Jacquette Swinden,7 Kennedy Alley,Dallas,Texas,75260
Star Henrion,5639 Shoshone Road,Madison,Wisconsin,53705
Barney Leckey,7986 Arkansas Terrace,Pueblo,Colorado,81005
Mannie Cogswell,24 Stone Corner Court,Ashburn,Virginia,22093
Micheil Ruckhard,617 Rutledge Hill,Salt Lake City,Utah,84115
Matilda Karlik,69 Gerald Center,Albany,New York,12222
Madeleine Rowena,909 Monument Alley,Albany,New York,12262
Egon Peever,1155 Lien Hill,Detroit,Michigan,48258
Britt Brownsett,30465 Brown Drive,Anchorage,Alaska,99522
Sargent Zwicker,087 Huxley Park,Jamaica,New York,11470
Lorianna Hammon,114 Badeau Point,Atlanta,Georgia,30351
Sutherlan MacMakin,36 Kennedy Point,Muncie,Indiana,47306
Nicolis Wittering,0 Huxley Trail,Fairbanks,Alaska,99790
Alva Callar,86108 Chive Road,Phoenix,Arizona,85010
Aimee Albrighton,80 Hauk Avenue,Los Angeles,California,90005
Alphard Heilds,41 Judy Parkway,Honolulu,Hawaii,96820
Marjory Pichmann,36145 Oriole Lane,New York City,New York,10120
Thornie Comiam,1166 Loomis Plaza,Saint Paul,Minnesota,55188
Aharon Alexsandrovich,9 Portage Street,San Antonio,Texas,78278
Port Shireff,2 Rockefeller Place,Omaha,Nebraska,68164
Mateo Custy,836 Badeau Place,Greensboro,North Carolina,27409
Belle Jodlkowski,26869 Anthes Place,Olympia,Washington,98516
Tome Tearny,470 Dwight Street,Dallas,Texas,75260
Brit Hartless,25 Nevada Lane,Houston,Texas,77025
Sherry Pimer,88 Kensington Plaza,Huntington,West Virginia,25775
Amandy Gouldstone,147 Redwing Junction,Denver,Colorado,80217
Kath Sturgeon,3 Coleman Circle,Alpharetta,Georgia,30022
Lucio Summerbell,343 Forster Circle,Arlington,Virginia,22217
Averill MacGregor,155 Birchwood Circle,Anchorage,Alaska,99517
Denise Blondell,8508 Buena Vista Trail,Chicago,Illinois,60609
Filia Moulden,576 Warrior Avenue,Seminole,Florida,34642
Meagan Hardan,94411 Lakewood Gardens Drive,Miami,Florida,33169
Sandi Samwaye,1 Menomonie Terrace,Columbus,Ohio,43284
Dickie Bleckly,8 Reinke Avenue,Fresno,California,93721
Graig Rosenstengel,2225 Sauthoff Court,Pensacola,Florida,32505
Aguste Buckberry,5412 Fisk Circle,Worcester,Massachusetts,01654
Tamara Schroder,248 Almo Court,Columbus,Ohio,43210
Hube Jean,865 Nevada Place,Ocala,Florida,34474
Mollie Sillwood,8 Buhler Place,Fort Worth,Texas,76147
Adelbert Lochran,58 Gale Court,Dallas,Texas,75372
Hannis Wisdom,4466 Texas Place,Athens,Georgia,30605
Artair Lerwill,99577 Twin Pines Terrace,Youngstown,Ohio,44505
Micky Grzegorzewicz,42 Ludington Parkway,Beaumont,Texas,77705
Heidie Mudie,90 Eastwood Parkway,San Luis Obispo,California,93407
Mandie Wellbank,8974 Canary Circle,Fayetteville,North Carolina,28314
Iseabal Conisbee,7 Bartillon Drive,Saint Paul,Minnesota,55166
Eliza Warrilow,95 Green Ridge Hill,Fullerton,California,92640
Farrah Kirkland,7880 Loomis Road,Midland,Michigan,48670
Sissie Coultass,5416 Namekagon Junction,Washington,District of Columbia,20260
Vanny Borgne,08260 Sunbrook Street,Des Moines,Iowa,50310
Anabella Kemmons,6 Menomonie Pass,Raleigh,North Carolina,27635
Charlean Kalvin,05 Trailsway Terrace,Roanoke,Virginia,24034
Sonni Egre,92067 Hoard Terrace,Ashburn,Virginia,22093
Brenden Baldery,1 Upham Court,Minneapolis,Minnesota,55446
Valentine Brownsmith,52015 Red Cloud Place,Washington,District of Columbia,20215
Neala Laminman,141 Menomonie Center,Birmingham,Alabama,35205
Jennee Dablin,27 Surrey Terrace,Huntington,West Virginia,25775
Jacobo Ingolotti,89757 Homewood Trail,Miami,Florida,33233
Phil Dikels,9 Hallows Way,Washington,District of Columbia,20508
Tisha Tregale,0 Troy Crossing,Birmingham,Alabama,35263
Ronald Maw,168 Union Point,Columbia,South Carolina,29240
Mayor Eaglestone,72853 Pankratz Place,Wilmington,Delaware,19892
Prudy Cardello,3 International Terrace,Pittsburgh,Pennsylvania,15250
Kristien Milliken,840 Everett Court,Dallas,Texas,75221
Caroline Borghese,1 7th Junction,Richmond,California,94807
Titus Bayns,19486 Bartillon Court,Homestead,Florida,33034
Keary Ashling,64139 International Parkway,Sacramento,California,94297
Christen Milksop,157 Dixon Circle,Austin,Texas,78703
Tricia Boij,70 Pleasure Hill,Roanoke,Virginia,24004
Gibby Lanney,11193 Everett Point,Lancaster,Pennsylvania,17605
Roberta Seiler,75 Aberg Parkway,Charleston,West Virginia,25313
Ashlin Rolance,71568 Tennessee Circle,Fairbanks,Alaska,99709
Arv Gavrieli,5813 Moland Avenue,New Orleans,Louisiana,70187
Leisha Darch,5983 Nevada Drive,Houston,Texas,77045
Roseanne Jans,47093 Everett Terrace,Falls Church,Virginia,22047
Bel Atton,408 Grayhawk Road,Kansas City,Missouri,64149
Olympie Sharman,8468 Spenser Street,Atlanta,Georgia,30368
Deonne Facchini,0 Vermont Crossing,Minneapolis,Minnesota,55487
Donni Osgar,6 Maryland Pass,Indianapolis,Indiana,46295
Yankee Bolliver,027 Montana Crossing,Newark,New Jersey,07104
Kessiah Vaney,496 Golf View Avenue,Louisville,Kentucky,40293
Gregoor McSperron,010 Independence Trail,Miami,Florida,33283
Lotty Grima,41143 Lawn Hill,Springfield,Illinois,62718
Fredia Scroggs,9 Coolidge Court,Midland,Texas,79705
Maitilde MacClenan,167 Roxbury Trail,Cumming,Georgia,30130
Carlie Paula,660 Sutteridge Court,Saint Paul,Minnesota,55188
Kendell Gwinnett,325 Dixon Circle,Baton Rouge,Louisiana,70815
Ediva Pates,72 Kings Junction,Garland,Texas,75044
Eberhard Newiss,36922 Magdeline Lane,Vero Beach,Florida,32964
Richart Dybell,89135 Trailsway Hill,Toledo,Ohio,43656
Barnard Huncote,95 Moulton Hill,Washington,District of Columbia,20420
Leilah Ceccoli,6366 Sunfield Parkway,Hicksville,New York,11854
Mikol Dell Casa,25185 Reinke Place,Monroe,Louisiana,71208
Samara Futcher,1 Eagan Parkway,Louisville,Kentucky,40225
Chicky Murrish,52 Sherman Trail,Metairie,Louisiana,70005
Caesar Quail,42866 Linden Center,Van Nuys,California,91406
Micheal Kobel,8 Springs Lane,Peoria,Illinois,61629
Caro Aish,401 Vernon Road,Charleston,West Virginia,25389
Jehanna Spirritt,5 Riverside Pass,Kingsport,Tennessee,37665
Meggi Costain,7 Burrows Court,Peoria,Illinois,61651
Emmalyn Hinrichs,07 Sherman Pass,Saint Paul,Minnesota,55127
Derward Gothliff,403 David Drive,Littleton,Colorado,80161
Brigitta Geggus,74661 Oneill Drive,Phoenix,Arizona,85099
Constantine Greguoli,993 Northport Way,Fresno,California,93786
Bonnibelle Jiruch,772 Forest Court,Birmingham,Alabama,35254
Trina Ybarra,2 Tomscot Place,Fort Lauderdale,Florida,33345
Ketti Tobin,3 Monterey Lane,Indianapolis,Indiana,46254
Leon Parnall,7052 Scofield Trail,Springfield,Illinois,62718
Jacquenetta Phillpot,631 Fremont Crossing,Roanoke,Virginia,24014
Jojo Cornbell,00477 Prairie Rose Center,Richmond,Virginia,23203
Filmore Davidek,43488 Monica Junction,Torrance,California,90510
Tibold Bletso,34462 Doe Crossing Point,Baton Rouge,Louisiana,70820
Bendick Lindstedt,7456 Continental Place,Wichita Falls,Texas,76310
Charin Redwing,526 Chive Court,Birmingham,Alabama,35205
Flem Dukes,4849 Manitowish Junction,Seattle,Washington,98115
Bethany Kirwin,58782 Beilfuss Drive,Murfreesboro,Tennessee,37131
Ellery Dewfall,5288 Farragut Road,New York City,New York,10024
Tuesday Bockmaster,30738 Coleman Road,Miami,Florida,33153
Zabrina Denning,247 Milwaukee Place,Atlanta,Georgia,30358
Mirilla Rickaert,9 Maple Wood Road,Birmingham,Alabama,35244
Sunny Saul,664 Johnson Lane,Chicago,Illinois,60609
Gardy Sanchez,309 Bobwhite Junction,Bridgeport,Connecticut,06673
Karoly Lillow,40 Havey Alley,Charleston,West Virginia,25356
Cecilia Confait,69599 Waubesa Place,Bloomington,Indiana,47405
Brit MacKartan,581 Corscot Court,Delray Beach,Florida,33448
Malchy Mathews,7446 Walton Parkway,Philadelphia,Pennsylvania,19196
Solomon Pinckney,395 Magdeline Park,Gastonia,North Carolina,28055
Adah Wieprecht,11427 Chinook Drive,Saint Louis,Missouri,63104
Delora Quittonden,1743 Debs Drive,Seattle,Washington,98109
Shelly Savill,075 Marcy Lane,Little Rock,Arkansas,72209
Crissy MacRanald,0 Dapin Crossing,Seattle,Washington,98148
Hildegarde Markushkin,0776 Merchant Terrace,Miami,Florida,33196
Timothy Gludor,17713 Bashford Hill,Alexandria,Virginia,22333
Hillary Dowles,92 Mariners Cove Park,El Paso,Texas,88541
Currey Hasley,92748 Iowa Way,Boca Raton,Florida,33499
Zacharias Cranch,4032 Manley Hill,Roanoke,Virginia,24004
Tessie Strethill,91945 Esker Center,Pittsburgh,Pennsylvania,15210
Shelbi Vayro,64954 Jenna Circle,Paterson,New Jersey,07505
Hildagarde Goulbourne,2468 Coolidge Pass,New York City,New York,10170
Anjanette Gorman,55 Sycamore Street,Springfield,Illinois,62776
Myca Farans,846 Esch Point,West Palm Beach,Florida,33421
Lambert Muzzollo,07 Acker Way,Saint Louis,Missouri,63196
Dot Joice,72 Washington Place,Virginia Beach,Virginia,23454
Rosalinda Cudworth,268 Doe Crossing Drive,Austin,Texas,78783
Maxie Eldershaw,24227 Monterey Way,Pittsburgh,Pennsylvania,15274
Mathew Gertz,6448 Surrey Park,Lubbock,Texas,79415
Hortense Bungey,3356 Erie Lane,Dallas,Texas,75353
Chickie Lawrey,3440 Bonner Center,El Paso,Texas,88569
Goddard Beaney,776 Dahle Court,Tacoma,Washington,98464
Emmy Ferryman,38 Valley Edge Circle,Frederick,Maryland,21705
Curr Smedmore,01875 Grim Hill,Dallas,Texas,75260
Joelynn Shrive,656 Harbort Pass,Anchorage,Alaska,99599
Daisy Blindermann,7334 Hansons Plaza,Albany,New York,12262
Astrix Charles,484 Esch Lane,Oakland,California,94616
Quinn Fairburn,74642 Buell Pass,Montpelier,Vermont,05609
Arly Sandyford,540 Spohn Parkway,Brooklyn,New York,11236
Dorelia Padilla,10379 Waubesa Parkway,Boulder,Colorado,80305
Zorah Itzik,2 Michigan Terrace,Independence,Missouri,64054
Clarabelle Jados,97 Maple Pass,Shawnee Mission,Kansas,66220
Zared Unwins,62143 Hollow Ridge Junction,Denver,Colorado,80217
Bryna Trenaman,8 Muir Hill,Waltham,Massachusetts,02453
Bernelle Sheaf,039 Marquette Terrace,Hattiesburg,Mississippi,39404
Darin Jirka,3 Heffernan Trail,Boise,Idaho,83757
Taffy Garrat,077 Hagan Trail,Miami,Florida,33261
Debbi Ugolotti,7097 Manufacturers Point,Montgomery,Alabama,36177
Andrey Gorke,86263 Manufacturers Crossing,Wilmington,Delaware,19810
Lin Jillings,116 Grayhawk Trail,Lexington,Kentucky,40581
Lida Somerbell,8843 Sherman Junction,Arlington,Texas,76016
Ingaberg Farragher,97778 Manley Plaza,Brooklyn,New York,11215
Meredithe Blomefield,23 Maryland Alley,El Paso,Texas,79989
Jerrilyn Polo,4804 Amoth Park,Miami,Florida,33190
Pamella Edmons,26870 Meadow Vale Plaza,Fort Lauderdale,Florida,33355
Jerri Lehenmann,1751 Namekagon Lane,New York City,New York,10165
Mace McKinty,22 Old Shore Street,Kalamazoo,Michigan,49006
Merridie Lusty,193 Hanson Plaza,Palm Bay,Florida,32909
Lucy de'-Ancy Willis,367 Walton Parkway,Charlotte,North Carolina,28263
Eugenia Ley,3 Continental Place,Phoenix,Arizona,85025
Blair Sambell,3 Golf View Alley,Hicksville,New York,11854
Jerry Dahlbom,52672 Fieldstone Road,Fresno,California,93762
Cooper Towns,5 Columbus Road,Lexington,Kentucky,40596
Spence Gain,8 Norway Maple Point,Kansas City,Missouri,64153
Alan Stitwell,1667 Mariners Cove Pass,Birmingham,Alabama,35236
Fanya Thoms,70 Division Plaza,Tulsa,Oklahoma,74149
Magnum Harvie,5 Brickson Park Center,Manassas,Virginia,22111
Jordanna Baleine,09632 Little Fleur Court,Abilene,Texas,79605
Honey Bauckham,75404 Rockefeller Hill,Chicago,Illinois,60669
Anna-diana Rummins,7184 Clemons Terrace,El Paso,Texas,79994
Randie Pelos,3 Memorial Lane,Arlington,Virginia,22234
Ailis Banbridge,5722 Dovetail Point,Dallas,Texas,75231
Nola Dunk,12 New Castle Park,Salt Lake City,Utah,84170
Franny Farge,59067 Dwight Court,Miami,Florida,33196
Salaidh Tabner,7586 Bluejay Pass,Bradenton,Florida,34210
Henriette Doniso,72799 Buena Vista Plaza,Boulder,Colorado,80310
Priscilla Berrington,008 Weeping Birch Parkway,Beaufort,South Carolina,29905
Gisele Daughtrey,970 Anthes Trail,Trenton,New Jersey,08695
Dolorita Beals,9825 Reinke Place,Oklahoma City,Oklahoma,73135
Aretha Leeb,297 Harper Court,Orlando,Florida,32803
Kermie Bendix,0309 Warner Alley,Minneapolis,Minnesota,55407
Bjorn Whiterod,5 Rusk Crossing,Fairfax,Virginia,22036
Casie Rodgier,09 Hanover Park,Staten Island,New York,10305
Toma Grassin,2 Hintze Road,Fresno,California,93778
Maxy Claypoole,676 Garrison Street,Toledo,Ohio,43605
Ermengarde McElhinney,15628 Lakewood Court,Anchorage,Alaska,99512
Sigvard Verson,94212 Veith Hill,Kansas City,Missouri,64190
Norean Bouda,298 Kenwood Road,Albany,New York,12222
Tiff Bryns,21406 Eliot Drive,Reno,Nevada,89505
Rolland Debold,2436 Vernon Road,New York City,New York,10150
Jobina Jesteco,23535 Northland Point,Birmingham,Alabama,35295
Jenni Gartside,6683 Ramsey Circle,Fullerton,California,92640
Clemmy Di Dello,80 Arapahoe Road,Sacramento,California,94297
Shelden Bengall,0 Jenna Street,Boston,Massachusetts,02283
Heywood Sher,21 Dexter Point,Las Vegas,Nevada,89145
Dag Arnaudin,584 Hovde Crossing,Cincinnati,Ohio,45296
Gerry McIllrick,266 Miller Street,Wichita Falls,Texas,76305
Maximilien Trott,766 Debra Trail,Houston,Texas,77281
Nadeen Woolvett,2453 Dwight Plaza,San Antonio,Texas,78296
Olenka Stable,6 Old Gate Plaza,Pomona,California,91797
Alexandrina Bohan,4673 Straubel Point,Norwalk,Connecticut,06859
D'arcy Spinozzi,33515 Summit Place,Fresno,California,93740
Edsel Mahody,2 Walton Park,Seattle,Washington,98185
Cindy Iacovozzo,8 Manufacturers Terrace,Oklahoma City,Oklahoma,73190
Sarine MacGillespie,2 Schiller Lane,Allentown,Pennsylvania,18105
Dorthy Element,05123 Arkansas Circle,New Castle,Pennsylvania,16107
Anissa Flegg,8 Lotheville Plaza,Spring Hill,Florida,34611
Sloane Eassom,7 Warner Parkway,Colorado Springs,Colorado,80995
Sumner Hacker,8 Vernon Way,Greenville,South Carolina,29610
Irvine Hallatt,8014 Oriole Center,Amarillo,Texas,79159
Lon Burford,7 Independence Street,Newport News,Virginia,23612
Randi Gregon,48673 Kinsman Hill,Minneapolis,Minnesota,55412
Ewart Trett,80 Lyons Terrace,Salt Lake City,Utah,84189
Dannie Spary,0 Towne Park,West Palm Beach,Florida,33405
Carin MacIllrick,804 Clarendon Center,Salt Lake City,Utah,84125
Kimberley Spier,3 Evergreen Pass,Cincinnati,Ohio,45228
Danice Hildrew,85350 Crownhardt Pass,Charlotte,North Carolina,28225
Mireille Winston,69 Burrows Alley,Fort Collins,Colorado,80525
Ingra Petty,67 Sycamore Terrace,Denver,Colorado,80255
Vaughan Paszek,27 Bultman Plaza,Virginia Beach,Virginia,23471
Ernie Dumpleton,320 Doe Crossing Pass,Atlanta,Georgia,30316
Lawry Buckner,96 Fairfield Junction,Beaumont,Texas,77713
Dareen Batthew,0360 Riverside Crossing,York,Pennsylvania,17405
Darell Hargrove,6 Nelson Hill,Chicago,Illinois,60663
Aluino Hedworth,2 Toban Court,Reno,Nevada,89595
Salli Tomsa,10025 Pine View Way,Boston,Massachusetts,02283
Loretta Royans,71 Bunting Way,Cleveland,Ohio,44111
Stevena Sterke,59 Everett Alley,Cedar Rapids,Iowa,52405
Hilliary Lane,2 7th Center,Sacramento,California,95818
Willard Escalero,38779 Del Sol Crossing,Tucson,Arizona,85725
Arty Kearley,62192 Oxford Parkway,Memphis,Tennessee,38126
Adah MacIlriach,420 Express Circle,Saint Louis,Missouri,63158
Rowland McGarva,132 Banding Court,Los Angeles,California,90065
Filippo Jouhning,7 Kings Lane,Washington,District of Columbia,20397
Prisca Romke,4 2nd Park,Springfield,Missouri,65805
Brinn Arnecke,568 Grayhawk Way,Spring Hill,Florida,34611
Dasya Dust,2635 Loftsgordon Center,Danbury,Connecticut,06816
Bridie Mabon,98 5th Hill,San Antonio,Texas,78260
Murial D'Adamo,37 American Ash Court,Cincinnati,Ohio,45233
Fielding Northey,4 3rd Plaza,Corpus Christi,Texas,78410
Arnie Malletratt,0 Dennis Circle,Metairie,Louisiana,70033
Brit Found,979 American Ash Crossing,Dallas,Texas,75241
Gareth Hainning,7 Fuller Point,Houston,Texas,77030
Umeko Ripping,4 Delladonna Trail,Fort Collins,Colorado,80525
Cami McBratney,07687 Ludington Terrace,Oakland,California,94660
Bradan O'Neal,5144 Lakewood Gardens Avenue,Fargo,North Dakota,58106
Gertrude Tomik,496 Westridge Circle,Colorado Springs,Colorado,80915
Rivkah Semerad,97 Autumn Leaf Court,Lexington,Kentucky,40510
Salmon Ilsley,8175 Norway Maple Parkway,Dayton,Ohio,45470
Rebeka Rickaert,6 Jay Crossing,Saint Louis,Missouri,63169
Claiborn Chandlar,5 Talmadge Street,Evansville,Indiana,47712
Arabela Ambresin,00 Burrows Pass,Pittsburgh,Pennsylvania,15210
Ofella Bernet,8505 Graedel Crossing,Anniston,Alabama,36205
Antonino Oakshott,07 7th Street,Norcross,Georgia,30092
Rae Totterdell,4974 Brickson Park Lane,Battle Creek,Michigan,49018
Angelle Kindleside,17 Karstens Parkway,Las Vegas,Nevada,89150
Craig Greengrass,57 La Follette Court,San Francisco,California,94154
Sarina Godridge,2873 Beilfuss Drive,New York City,New York,10115
Ora Sawkins,37 Granby Terrace,Washington,District of Columbia,20470
Candida Skase,8 Grim Circle,Tacoma,Washington,98424
Ruperta Jagielski,949 Mayfield Terrace,Winston Salem,North Carolina,27150
Kerrill Goncalo,69480 Fordem Terrace,Montgomery,Alabama,36177
Rebeka Jiri,30617 Jenna Crossing,Spokane,Washington,99210
Alvie Stood,979 Pankratz Junction,New York City,New York,10099
Trev Torbett,262 Swallow Parkway,Memphis,Tennessee,38136
Morry Filasov,99883 Melby Road,San Diego,California,92160
Gina McCandie,572 Swallow Avenue,Alexandria,Virginia,22301
Giuditta Pinilla,0 Colorado Avenue,Bowie,Maryland,20719
Rachel Greste,339 Hanover Place,Las Vegas,Nevada,89130
Jacky Clapshaw,00 Hoepker Terrace,Corona,California,92883
Jessa Sheepy,95 Mendota Parkway,Phoenix,Arizona,85045
Gertrude Tourner,8 Arrowood Crossing,Duluth,Minnesota,55805
Essie Robertucci,793 Sycamore Circle,Kansas City,Missouri,64153
Viole Golds,85 Ramsey Park,Des Moines,Iowa,50330
Malinde Freyne,37815 Moulton Hill,Memphis,Tennessee,38114
Milka Cogman,34783 Homewood Alley,Columbus,Georgia,31904
Lyndell Cranmer,54399 Transport Pass,Washington,District of Columbia,20425
Lenard Janks,79 Northridge Circle,Apache Junction,Arizona,85219
Roy Treverton,976 Carioca Trail,Jersey City,New Jersey,07310
Nanine Rickcord,18 Springs Street,Louisville,Kentucky,40256
Hamel Billington,77727 Meadow Vale Parkway,Albany,New York,12255
Lianna Wareham,9509 Hintze Point,Boca Raton,Florida,33499
Roshelle Yesinov,6 Sherman Pass,Peoria,Arizona,85383
Shelli Kildahl,9212 Bluejay Terrace,Frederick,Maryland,21705
Reagen Dicks,39 Parkside Road,Canton,Ohio,44710
Larry Goodchild,691 Roxbury Terrace,Des Moines,Iowa,50335
Artemus Maple,68 Victoria Terrace,Brooklyn,New York,11236
Jenna McCoveney,6 Jenifer Lane,Erie,Pennsylvania,16510
Claude Pendred,8796 Pankratz Plaza,Little Rock,Arkansas,72209
Carter Coulling,67914 Beilfuss Hill,Jamaica,New York,11431
Ilise Woollons,20 Helena Hill,Knoxville,Tennessee,37924
Dwight Holt,59918 Mariners Cove Place,Washington,District of Columbia,20503
Luciana Cropp,40 Anzinger Pass,San Francisco,California,94159
Nikola Aughton,7 Onsgard Alley,Atlanta,Georgia,30301
Lyda Elix,2898 Kipling Junction,Charleston,South Carolina,29424
Marlowe Tavernor,373 Caliangt Plaza,Washington,District of Columbia,20414
Carmelia De Atta,05 Heath Junction,Phoenix,Arizona,85072
Michell Davidwitz,36 Dorton Place,Washington,District of Columbia,20436
Libbi Degenhardt,49802 Northridge Circle,Grand Junction,Colorado,81505
Devin Abbets,3 Pine View Pass,Los Angeles,California,90050
Ignacius Hatherall,9798 Macpherson Center,Glendale,Arizona,85311
Dom Barnson,18 Oriole Hill,Greensboro,North Carolina,27404
Tierney Carrodus,060 Sunnyside Point,Saint Paul,Minnesota,55108
Ody Dyett,198 Lawn Crossing,Kansas City,Missouri,64153
Natty Franceschielli,666 Arrowood Junction,Chicago,Illinois,60609
Beatriz Purkins,8 Farragut Avenue,Philadelphia,Pennsylvania,19131
Marji Holtom,1032 Roxbury Park,Austin,Texas,78783
Joline Rangeley,31949 Rockefeller Pass,Miami,Florida,33124
Damita How to preserve,3895 Old Gate Terrace,Albany,New York,12242
Garth Tomaskunas,69041 Sommers Park,Wichita,Kansas,67260
Channa Portail,1 Bartillon Hill,Atlanta,Georgia,30358
Jessey Melley,2314 Burning Wood Pass,Newport News,Virginia,23612
Minni Boggon,9896 American Ash Hill,Oklahoma City,Oklahoma,73157
Louisa Pilcher,12755 Hagan Way,Pueblo,Colorado,81005
Cherie Zucker,64 Bowman Pass,Colorado Springs,Colorado,80905
Lou Jennins,2 Arrowood Alley,Birmingham,Alabama,35205
Alastair Stronough,32891 Del Mar Crossing,Burbank,California,91520
Farrah Burder,1116 Kenwood Drive,West Palm Beach,Florida,33405
Lilllie Soulsby,82 Golf Terrace,Cincinnati,Ohio,45271
Jeane Raiman,247 Loftsgordon Alley,El Paso,Texas,79923
Reginauld Lehrer,146 Redwing Crossing,Omaha,Nebraska,68124
Bertina Bassom,39 Oxford Avenue,Des Moines,Iowa,50310
Federica Strain,9 Charing Cross Crossing,El Paso,Texas,79977
Nigel Fonteyne,14046 Helena Trail,Gilbert,Arizona,85297
Lauri Cradey,1 Cottonwood Court,Jacksonville,Florida,32259
Wren O'Geneay,75 Monterey Terrace,South Bend,Indiana,46634
Velma Wadge,2 Superior Avenue,Mesa,Arizona,85210
Edlin Yegorshin,496 La Follette Place,Cleveland,Ohio,44177
Phillip Hodges,6215 Southridge Terrace,Santa Rosa,California,95405
Edsel Ansley,85496 School Street,Jefferson City,Missouri,65110
Mendel Leathley,58574 Dayton Place,Phoenix,Arizona,85035
Spencer Camelli,399 Mariners Cove Terrace,Tacoma,Washington,98405
Dorolisa Dolohunty,40792 Maywood Drive,Toledo,Ohio,43605
Cyb Smewin,91 Dryden Circle,Colorado Springs,Colorado,80951
Gayla Harwell,6 Burrows Lane,San Jose,California,95150
Brandtr Bramwich,816 Forest Way,San Jose,California,95113
Lynda Heaford,8 Dahle Plaza,Irving,Texas,75062
Emlynn Litster,47 Vahlen Center,Albany,New York,12227
Lark Alenov,639 Schlimgen Alley,Denver,Colorado,80204
Portie Ducarel,9731 Packers Lane,Des Moines,Iowa,50347
Elfrida Starbuck,758 Aberg Center,Birmingham,Alabama,35244
Lorette Kime,80 5th Place,Oklahoma City,Oklahoma,73104
Hedvig Vashchenko,7 Sachs Point,Madison,Wisconsin,53779
Teresa Endecott,8248 Bluestem Junction,Los Angeles,California,90076
Bastien Flooks,72110 Fremont Trail,Phoenix,Arizona,85053
Clarette Bradburn,43977 Center Hill,Denver,Colorado,80217
Kermy Camin,09 Paget Crossing,San Antonio,Texas,78220
Bekki Drepp,5 Evergreen Street,Las Vegas,Nevada,89160
Constanta Fetterplace,999 Golf Center,Dallas,Texas,75265
Catrina Thomke,26047 Dapin Place,Boulder,Colorado,80310
Myrtice Egdal,00771 Jenna Road,Young America,Minnesota,55557
Alexandro Ren,7 Beilfuss Hill,Charleston,South Carolina,29411
Mel Cunnane,0 Dayton Trail,Orlando,Florida,32854
Vassili Hynes,861 Schiller Plaza,Tampa,Florida,33615
Ferd Few,3 Sundown Drive,Cumming,Georgia,30130
Agathe Dirr,6135 Old Shore Way,Chicago,Illinois,60646
Tomasina Gross,066 Sutteridge Road,Duluth,Minnesota,55811
Herta Gabitis,18 Banding Street,Monroe,Louisiana,71208
Gweneth Behagg,815 Emmet Pass,Little Rock,Arkansas,72209
Angel Beck,484 School Pass,Lansing,Michigan,48956
Faythe Wiggans,726 Hazelcrest Road,Huntington,West Virginia,25721
Esme Ogles,2579 Grasskamp Circle,Columbus,Ohio,43210
Bill Crummie,21 Northland Alley,El Paso,Texas,79934
Beth Sealy,4 Morning Lane,Houston,Texas,77260
Jaine Clarricoates,36 Charing Cross Point,Colorado Springs,Colorado,80925
Mattheus Raylton,71 Anzinger Place,Concord,California,94522
Dalis Detloff,3 Comanche Drive,Bowie,Maryland,20719
Dewie McCumskay,6 Burrows Circle,Las Vegas,Nevada,89135
Tybalt Flageul,9 Arkansas Avenue,Washington,District of Columbia,20210
Blinny Ryam,455 Forest Dale Center,Phoenix,Arizona,85020
Wilma Garvey,509 Calypso Avenue,Moreno Valley,California,92555
Jarrod Tregido,35 Paget Court,Atlanta,Georgia,30343
Ephrem Ducker,91 Corben Alley,Scottsdale,Arizona,85271
Farica Padden,80002 Lindbergh Court,Elmira,New York,14905
Nels McKinley,449 Cambridge Terrace,Clearwater,Florida,33763
Flora Chrismas,2 Westport Plaza,Miami,Florida,33124
Travus Pledger,14 Boyd Road,Sacramento,California,94263
Mariya Gee,3 Surrey Drive,Baton Rouge,Louisiana,70820
Paola McArt,6634 Dexter Avenue,Hayward,California,94544
Wells Crimmins,15822 Washington Court,Santa Fe,New Mexico,87505
Zandra Giroldo,35485 Hauk Road,Wichita,Kansas,67205
Bibbie Vagg,90 Canary Place,Hialeah,Florida,33018
Haskell Schuricht,49 Rutledge Street,Omaha,Nebraska,68144
Shelagh MacCague,6307 Boyd Trail,Austin,Texas,78744
Sue Kynaston,00 Lakeland Circle,Flushing,New York,11388
Bill Alenov,6494 Sage Center,Las Vegas,Nevada,89115
Thea Searson,3016 Brickson Park Avenue,Youngstown,Ohio,44511
Deny Dent,057 Melby Way,Colorado Springs,Colorado,80905
Giana O'Glassane,3724 Little Fleur Pass,Los Angeles,California,90025
Leena Poznan,962 Hagan Avenue,El Paso,Texas,79955
Donica Danovich,39 Steensland Plaza,Anaheim,California,92805
Maurie Lapides,9 Rieder Court,San Jose,California,95155
Tallie Cornejo,23382 Northridge Hill,Birmingham,Alabama,35242
Wilona Kupka,5587 Drewry Terrace,Warren,Michigan,48092
Shell Sollom,315 Village Terrace,Jacksonville,Florida,32209
Brett Caslake,8 Center Park,Trenton,New Jersey,08608
Mohammed Petracek,771 Russell Lane,Austin,Texas,78726
Joleen Filshin,75451 Fuller Pass,Spokane,Washington,99205
Vaclav Bernolet,565 Lakewood Avenue,San Antonio,Texas,78265
Hildegarde Belden,04217 Trailsway Alley,North Hollywood,California,91616
Alejandra Cona,7797 Anniversary Hill,San Francisco,California,94177
Donaugh Rubee,97268 Hoepker Junction,San Diego,California,92115
Augusta Ulyatt,8 Erie Trail,Lexington,Kentucky,40524
Thea Densham,5178 Chinook Place,Indianapolis,Indiana,46207
Calv Grabeham,4 Grasskamp Court,Shreveport,Louisiana,71130
Cornie Osbourn,3707 Becker Alley,Phoenix,Arizona,85035
Fawne Cleverley,30 Sycamore Center,Naples,Florida,33961
Maxwell Flucker,30301 Green Lane,Fort Worth,Texas,76110
Michelle Figgen,38655 Memorial Center,Louisville,Kentucky,40280
Chere Stanner,6587 Oriole Hill,Seattle,Washington,98166
Dolli Carnall,44232 Glacier Hill Point,Las Vegas,Nevada,89150
Mirella Abbet,42981 Summerview Crossing,Tuscaloosa,Alabama,35487
Cart Potzold,6 Pierstorff Place,San Antonio,Texas,78220
Kingsly Abriani,9 Karstens Point,Des Moines,Iowa,50393
Creight Dalmon,2 Beilfuss Lane,Baltimore,Maryland,21229
Arlyn Kilvington,949 Loftsgordon Court,Monticello,Minnesota,55585
Daveen Croizier,81 Portage Lane,Charlotte,North Carolina,28242
Sharron Bucksey,9827 Aberg Street,Rockford,Illinois,61110
Kasey Connell,4831 Havey Drive,Austin,Texas,78726
Juieta Dreher,0998 Muir Pass,Saint Petersburg,Florida,33742
Valle Taunton.,1358 Thackeray Plaza,Des Moines,Iowa,50936
Marius Blackwood,77028 Eliot Parkway,Santa Barbara,California,93111
Garrard Favelle,143 Gina Point,Southfield,Michigan,48076
Elwira Ballentime,28 School Way,Tuscaloosa,Alabama,35487
Karlene Pybus,0993 Fremont Way,Cincinnati,Ohio,45208
Stacey Petriello,3 Talmadge Crossing,Dallas,Texas,75392
Cornell Wyke,4 Barby Court,Panama City,Florida,32412
Teddie Pietasch,5 Service Trail,Arlington,Virginia,22234
Meredith Casely,68257 Anniversary Street,Raleigh,North Carolina,27610
Natassia Hoyt,50 Milwaukee Avenue,Anchorage,Alaska,99507
Wyn Gravenall,68 Clemons Parkway,Alexandria,Virginia,22333
Viviene Di Biaggi,23416 Sycamore Point,Birmingham,Alabama,35244
Cosimo Glasbey,941 Buhler Crossing,Boston,Massachusetts,02124
Rubin Dannel,59 Erie Parkway,Pensacola,Florida,32595
Balduin Petrolli,4 Talmadge Junction,Chattanooga,Tennessee,37450
Grayce Noon,2314 Ryan Trail,White Plains,New York,10633
Syd Buxcy,6783 Scoville Avenue,Fort Collins,Colorado,80525
Tiphany Swinburn,861 Talisman Pass,El Paso,Texas,88569
Roger Rubinfeld,60124 Dottie Court,Charlotte,North Carolina,28299
